{
    "list": [{
        "key": "热门",
        "cities": [{
            "city": "杭州市",
            "pinyin": "hangzhoushi",
            "code": "179"
        }, {
            "city": "北京市",
            "pinyin": "beijingshi",
            "code": "131"
        }, {
            "city": "上海市",
            "pinyin": "shanghaishi",
            "code": "289"
        }, {
            "city": "广州市",
            "pinyin": "guangzhoushi",
            "code": "257"
        }, {
            "city": "深圳市",
            "pinyin": "shenshi",
            "code": "340"
        }, {
            "city": "成都市",
            "pinyin": "chengdushi",
            "code": "75"
        }, {
            "city": "重庆市",
            "pinyin": "zhongqingshi",
            "code": "132"
        }, {
            "city": "天津市",
            "pinyin": "tianjinshi",
            "code": "332"
        }, {
            "city": "南京市",
            "pinyin": "nanjingshi",
            "code": "315"
        }, {
            "city": "苏州市",
            "pinyin": "suzhoushi",
            "code": "224"
        }, {
            "city": "武汉市",
            "pinyin": "wuhanshi",
            "code": "218"
        }, {
            "city": "西安市",
            "pinyin": "xianshi",
            "code": "233"
        }]
    }, {
        "key": "A",
        "cities": [{
            "city": "阿坝藏族羌族自治州",
            "pinyin": "abacangzuqiangzuzizhizhou",
            "code": "185"
        }, {
            "city": "阿克苏地区",
            "pinyin": "akesudiqu",
            "code": "85"
        }, {
            "city": "阿拉善盟",
            "pinyin": "alashanmeng",
            "code": "230"
        }, {
            "city": "阿勒泰地区",
            "pinyin": "aletaidiqu",
            "code": "96"
        }, {
            "city": "阿里地区",
            "pinyin": "alidiqu",
            "code": "103"
        }, {
            "city": "安康市",
            "pinyin": "ankangshi",
            "code": "324"
        }, {
            "city": "安庆市",
            "pinyin": "anqingshi",
            "code": "130"
        }, {
            "city": "鞍山市",
            "pinyin": "anshanshi",
            "code": "320"
        }, {
            "city": "安顺市",
            "pinyin": "anshunshi",
            "code": "263"
        }, {
            "city": "安阳市",
            "pinyin": "anyangshi",
            "code": "267"
        }]
    }, {
        "key": "B",
        "cities": [{
            "city": "白城市",
            "pinyin": "baichengshi",
            "code": "51"
        }, {
            "city": "百色市",
            "pinyin": "baiseshi",
            "code": "203"
        }, {
            "city": "白山市",
            "pinyin": "baishanshi",
            "code": "57"
        }, {
            "city": "白沙县",
            "pinyin": "baishaxian",
            "code": "2359"
        }, {
            "city": "白银市",
            "pinyin": "baiyinshi",
            "code": "35"
        }, {
            "city": "蚌埠市",
            "pinyin": "bangbushi",
            "code": "126"
        }, {
            "city": "保定市",
            "pinyin": "baodingshi",
            "code": "307"
        }, {
            "city": "宝鸡市",
            "pinyin": "baojishi",
            "code": "171"
        }, {
            "city": "保山市",
            "pinyin": "baoshanshi",
            "code": "112"
        }, {
            "city": "保亭县",
            "pinyin": "baotingxian",
            "code": "1217"
        }, {
            "city": "包头市",
            "pinyin": "baotoushi",
            "code": "229"
        }, {
            "city": "巴彦淖尔市",
            "pinyin": "bayannaoershi",
            "code": "169"
        }, {
            "city": "巴音郭楞蒙古自治州",
            "pinyin": "bayinguolengmengguzizhizhou",
            "code": "86"
        }, {
            "city": "巴中市",
            "pinyin": "bazhongshi",
            "code": "239"
        }, {
            "city": "北海市",
            "pinyin": "beihaishi",
            "code": "295"
        }, {
            "city": "北京市",
            "pinyin": "beijingshi",
            "code": "131"
        }, {
            "city": "本溪市",
            "pinyin": "benxishi",
            "code": "227"
        }, {
            "city": "毕节地区",
            "pinyin": "bijiediqu",
            "code": "206"
        }, {
            "city": "滨州市",
            "pinyin": "binzhoushi",
            "code": "235"
        }, {
            "city": "博尔塔拉蒙古自治州",
            "pinyin": "boertalamengguzizhizhou",
            "code": "88"
        }]
    }, {
        "key": "C",
        "cities": [{
            "city": "沧州市",
            "pinyin": "cangzhoushi",
            "code": "149"
        }, {
            "city": "长春市",
            "pinyin": "changchunshi",
            "code": "53"
        }, {
            "city": "常德市",
            "pinyin": "changdeshi",
            "code": "219"
        }, {
            "city": "昌都地区",
            "pinyin": "changdudiqu",
            "code": "99"
        }, {
            "city": "昌江县",
            "pinyin": "changjiangxian",
            "code": "1642"
        }, {
            "city": "昌吉回族自治州",
            "pinyin": "changjihuizuzizhizhou",
            "code": "93"
        }, {
            "city": "长沙市",
            "pinyin": "changshashi",
            "code": "158"
        }, {
            "city": "长治市",
            "pinyin": "changzhishi",
            "code": "356"
        }, {
            "city": "常州市",
            "pinyin": "changzhoushi",
            "code": "348"
        }, {
            "city": "巢湖市",
            "pinyin": "chaohushi",
            "code": "251"
        }, {
            "city": "朝阳市",
            "pinyin": "chaoyangshi",
            "code": "280"
        }, {
            "city": "潮州市",
            "pinyin": "chaozhoushi",
            "code": "201"
        }, {
            "city": "承德市",
            "pinyin": "chengdeshi",
            "code": "207"
        }, {
            "city": "成都市",
            "pinyin": "chengdushi",
            "code": "75"
        }, {
            "city": "澄迈县",
            "pinyin": "chengmaixian",
            "code": "2757"
        }, {
            "city": "郴州市",
            "pinyin": "chenzhoushi",
            "code": "275"
        }, {
            "city": "赤峰市",
            "pinyin": "chifengshi",
            "code": "297"
        }, {
            "city": "池州市",
            "pinyin": "chizhoushi",
            "code": "299"
        }, {
            "city": "崇左市 ",
            "pinyin": "chongzuoshi",
            "code": "144"
        }, {
            "city": "楚雄彝族自治州",
            "pinyin": "chuxiongyizuzizhizhou",
            "code": "105"
        }, {
            "city": "滁州市",
            "pinyin": "chuzhoushi",
            "code": "189"
        }]
    }, {
        "key": "D",
        "cities": [{
            "city": "大连市",
            "pinyin": "dalianshi",
            "code": "167"
        }, {
            "city": "大理白族自治州",
            "pinyin": "dalibaizuzizhizhou",
            "code": "111"
        }, {
            "city": "丹东市",
            "pinyin": "dandongshi",
            "code": "282"
        }, {
            "city": "大庆市",
            "pinyin": "daqingshi",
            "code": "50"
        }, {
            "city": "大同市",
            "pinyin": "datongshi",
            "code": "355"
        }, {
            "city": "大兴安岭地区",
            "pinyin": "daxinganlingdiqu",
            "code": "38"
        }, {
            "city": "达州市",
            "pinyin": "dazhoushi",
            "code": "369"
        }, {
            "city": "德宏傣族景颇族自治州 ",
            "pinyin": "dehongdaizujingpozuzizhizhou",
            "code": "116"
        }, {
            "city": "德阳市",
            "pinyin": "deyangshi",
            "code": "74"
        }, {
            "city": "德州市",
            "pinyin": "dezhoushi",
            "code": "372"
        }, {
            "city": "定安县",
            "pinyin": "dinganxian",
            "code": "1214"
        }, {
            "city": "定西市",
            "pinyin": "dingxishi",
            "code": "136"
        }, {
            "city": "迪庆藏族自治州",
            "pinyin": "diqingcangzuzizhizhou",
            "code": "115"
        }, {
            "city": "东方市",
            "pinyin": "dongfangshi",
            "code": "2634"
        }, {
            "city": "东莞市",
            "pinyin": "dongshi",
            "code": "119"
        }, {
            "city": "东营市",
            "pinyin": "dongyingshi",
            "code": "174"
        }]
    }, {
        "key": "E",
        "cities": [{
            "city": "鄂尔多斯市",
            "pinyin": "eerduosishi",
            "code": "283"
        }, {
            "city": "恩施市",
            "pinyin": "enshishi",
            "code": "373"
        }, {
            "city": "鄂州市",
            "pinyin": "ezhoushi",
            "code": "122"
        }]
    }, {
        "key": "F",
        "cities": [{
            "city": "防城港市",
            "pinyin": "fangchenggangshi",
            "code": "204"
        }, {
            "city": "佛山市",
            "pinyin": "foshanshi",
            "code": "138"
        }, {
            "city": "抚顺市",
            "pinyin": "fushunshi",
            "code": "184"
        }, {
            "city": "阜新市",
            "pinyin": "fuxinshi",
            "code": "59"
        }, {
            "city": "阜阳市",
            "pinyin": "fuyangshi",
            "code": "128"
        }, {
            "city": "抚州市",
            "pinyin": "fuzhoushi",
            "code": "226"
        }, {
            "city": "福州市",
            "pinyin": "fuzhoushi",
            "code": "300"
        }]
    }, {
        "key": "G",
        "cities": [{
            "city": "甘南藏族自治州",
            "pinyin": "gannancangzuzizhizhou",
            "code": "247"
        }, {
            "city": "赣州市",
            "pinyin": "ganzhoushi",
            "code": "365"
        }, {
            "city": "甘孜藏族自治州",
            "pinyin": "ganzicangzuzizhizhou",
            "code": "73"
        }, {
            "city": "广安市",
            "pinyin": "guanganshi",
            "code": "241"
        }, {
            "city": "广元市",
            "pinyin": "guangyuanshi",
            "code": "329"
        }, {
            "city": "广州市",
            "pinyin": "guangzhoushi",
            "code": "257"
        }, {
            "city": "贵港市",
            "pinyin": "guigangshi",
            "code": "341"
        }, {
            "city": "桂林市",
            "pinyin": "guilinshi",
            "code": "142"
        }, {
            "city": "贵阳市",
            "pinyin": "guiyangshi",
            "code": "146"
        }, {
            "city": "果洛藏族自治州",
            "pinyin": "guoluocangzuzizhizhou",
            "code": "72"
        }, {
            "city": "固原市",
            "pinyin": "guyuanshi",
            "code": "246"
        }]
    }, {
        "key": "H",
        "cities": [{
            "city": "哈尔滨市",
            "pinyin": "haerbinshi",
            "code": "48"
        }, {
            "city": "海北藏族自治州",
            "pinyin": "haibeicangzuzizhizhou",
            "code": "67"
        }, {
            "city": "海东地区",
            "pinyin": "haidongdiqu",
            "code": "69"
        }, {
            "city": "海口市",
            "pinyin": "haikoushi",
            "code": "125"
        }, {
            "city": "海南藏族自治州 ",
            "pinyin": "hainancangzuzizhizhou",
            "code": "68"
        }, {
            "city": "海西蒙古族藏族自治州",
            "pinyin": "haiximengguzucangzuzizhizhou",
            "code": "65"
        }, {
            "city": "哈密地区",
            "pinyin": "hamidiqu",
            "code": "91"
        }, {
            "city": "邯郸市",
            "pinyin": "handanshi",
            "code": "151"
        }, {
            "city": "杭州市",
            "pinyin": "hangzhoushi",
            "code": "179"
        }, {
            "city": "汉中市",
            "pinyin": "hanzhongshi",
            "code": "352"
        }, {
            "city": "鹤壁市",
            "pinyin": "hebishi",
            "code": "215"
        }, {
            "city": "河池市",
            "pinyin": "hechishi",
            "code": "143"
        }, {
            "city": "合肥市",
            "pinyin": "hefeishi",
            "code": "127"
        }, {
            "city": "鹤岗市",
            "pinyin": "hegangshi",
            "code": "43"
        }, {
            "city": "黑河市",
            "pinyin": "heiheshi",
            "code": "39"
        }, {
            "city": "衡水市",
            "pinyin": "hengshuishi",
            "code": "208"
        }, {
            "city": "衡阳市",
            "pinyin": "hengyangshi",
            "code": "159"
        }, {
            "city": "漯河市",
            "pinyin": "heshi",
            "code": "344"
        }, {
            "city": "和田地区",
            "pinyin": "hetiandiqu",
            "code": "82"
        }, {
            "city": "河源市",
            "pinyin": "heyuanshi",
            "code": "200"
        }, {
            "city": "菏泽市",
            "pinyin": "hezeshi",
            "code": "353"
        }, {
            "city": "贺州市",
            "pinyin": "hezhoushi",
            "code": "260"
        }, {
            "city": "红河哈尼族彝族自治州",
            "pinyin": "honghehanizuyizuzizhizhou",
            "code": "107"
        }, {
            "city": "淮安市",
            "pinyin": "huaianshi",
            "code": "162"
        }, {
            "city": "淮北市",
            "pinyin": "huaibeishi",
            "code": "253"
        }, {
            "city": "怀化市",
            "pinyin": "huaihuashi",
            "code": "363"
        }, {
            "city": "淮南市",
            "pinyin": "huainanshi",
            "code": "250"
        }, {
            "city": "黄冈市",
            "pinyin": "huanggangshi",
            "code": "271"
        }, {
            "city": "黄南藏族自治州",
            "pinyin": "huangnancangzuzizhizhou",
            "code": "70"
        }, {
            "city": "黄山市",
            "pinyin": "huangshanshi",
            "code": "252"
        }, {
            "city": "黄石市",
            "pinyin": "huangshishi",
            "code": "311"
        }, {
            "city": "呼和浩特市",
            "pinyin": "huhehaoteshi",
            "code": "321"
        }, {
            "city": "惠州市",
            "pinyin": "huizhoushi",
            "code": "301"
        }, {
            "city": "葫芦岛市",
            "pinyin": "huludaoshi",
            "code": "319"
        }, {
            "city": "呼伦贝尔市",
            "pinyin": "hulunbeiershi",
            "code": "61"
        }, {
            "city": "湖州市",
            "pinyin": "huzhoushi",
            "code": "294"
        }]
    }, {
        "key": "J",
        "cities": [{
            "city": "佳木斯市",
            "pinyin": "jiamusishi",
            "code": "42"
        }, {
            "city": "江门市",
            "pinyin": "jiangmenshi",
            "code": "302"
        }, {
            "city": "吉安市",
            "pinyin": "jianshi",
            "code": "318"
        }, {
            "city": "焦作市",
            "pinyin": "jiaozuoshi",
            "code": "211"
        }, {
            "city": "嘉兴市",
            "pinyin": "jiaxingshi",
            "code": "334"
        }, {
            "city": "嘉峪关市",
            "pinyin": "jiayuguanshi",
            "code": "33"
        }, {
            "city": "揭阳市",
            "pinyin": "jieyangshi",
            "code": "259"
        }, {
            "city": "吉林市",
            "pinyin": "jilinshi",
            "code": "55"
        }, {
            "city": "济南市",
            "pinyin": "jinanshi",
            "code": "288"
        }, {
            "city": "金昌市",
            "pinyin": "jinchangshi",
            "code": "34"
        }, {
            "city": "晋城市",
            "pinyin": "jinchengshi",
            "code": "290"
        }, {
            "city": "景德镇市",
            "pinyin": "jingdezhenshi",
            "code": "225"
        }, {
            "city": "荆门市",
            "pinyin": "jingmenshi",
            "code": "217"
        }, {
            "city": "荆州市",
            "pinyin": "jingzhoushi",
            "code": "157"
        }, {
            "city": "金华市",
            "pinyin": "jinhuashi",
            "code": "333"
        }, {
            "city": "济宁市",
            "pinyin": "jiningshi",
            "code": "286"
        }, {
            "city": "晋中市",
            "pinyin": "jinzhongshi",
            "code": "238"
        }, {
            "city": "锦州市",
            "pinyin": "jinzhoushi",
            "code": "166"
        }, {
            "city": "九江市",
            "pinyin": "jiujiangshi",
            "code": "349"
        }, {
            "city": "酒泉市",
            "pinyin": "jiuquanshi",
            "code": "37"
        }, {
            "city": "鸡西市",
            "pinyin": "jixishi",
            "code": "46"
        }, {
            "city": "济源市",
            "pinyin": "jiyuanshi",
            "code": "1277"
        }]
    }, {
        "key": "K",
        "cities": [{
            "city": "开封市",
            "pinyin": "kaifengshi",
            "code": "210"
        }, {
            "city": "喀什地区",
            "pinyin": "kashidiqu",
            "code": "83"
        }, {
            "city": "克拉玛依市",
            "pinyin": "kelamayishi",
            "code": "95"
        }, {
            "city": "克孜勒苏柯尔克孜自治州",
            "pinyin": "kezilesukeerkezizizhizhou",
            "code": "84"
        }, {
            "city": "昆明市",
            "pinyin": "kunmingshi",
            "code": "104"
        }]
    }, {
        "key": "L",
        "cities": [{
            "city": "来宾市",
            "pinyin": "laibinshi",
            "code": "202"
        }, {
            "city": "莱芜市",
            "pinyin": "laiwushi",
            "code": "124"
        }, {
            "city": "廊坊市",
            "pinyin": "langfangshi",
            "code": "191"
        }, {
            "city": "兰州市",
            "pinyin": "lanzhoushi",
            "code": "36"
        }, {
            "city": "拉萨市",
            "pinyin": "lasashi",
            "code": "100"
        }, {
            "city": "乐东县",
            "pinyin": "ledongxian",
            "code": "2032"
        }, {
            "city": "乐山市",
            "pinyin": "leshanshi",
            "code": "79"
        }, {
            "city": "凉山彝族自治州",
            "pinyin": "liangshanyizuzizhizhou",
            "code": "80"
        }, {
            "city": "连云港市",
            "pinyin": "lianyungangshi",
            "code": "347"
        }, {
            "city": "聊城市",
            "pinyin": "liaochengshi",
            "code": "366"
        }, {
            "city": "辽阳市",
            "pinyin": "liaoyangshi",
            "code": "351"
        }, {
            "city": "辽源市",
            "pinyin": "liaoyuanshi",
            "code": "183"
        }, {
            "city": "丽江市",
            "pinyin": "lijiangshi",
            "code": "114"
        }, {
            "city": "临沧市",
            "pinyin": "lincangshi",
            "code": "110"
        }, {
            "city": "临汾市",
            "pinyin": "linfenshi",
            "code": "368"
        }, {
            "city": "临高县",
            "pinyin": "lingaoxian",
            "code": "2033"
        }, {
            "city": "陵水县",
            "pinyin": "lingshuixian",
            "code": "1643"
        }, {
            "city": "临夏回族自治州",
            "pinyin": "linxiahuizuzizhizhou",
            "code": "182"
        }, {
            "city": "临沂市",
            "pinyin": "linyishi",
            "code": "234"
        }, {
            "city": "林芝地区 ",
            "pinyin": "linzhidiqu",
            "code": "98"
        }, {
            "city": "丽水市",
            "pinyin": "lishuishi",
            "code": "292"
        }, {
            "city": "六安市",
            "pinyin": "liuanshi",
            "code": "298"
        }, {
            "city": "六盘水市",
            "pinyin": "liupanshuishi",
            "code": "147"
        }, {
            "city": "柳州市",
            "pinyin": "liuzhoushi",
            "code": "305"
        }, {
            "city": "陇南市",
            "pinyin": "longnanshi",
            "code": "256"
        }, {
            "city": "龙岩市",
            "pinyin": "longyanshi",
            "code": "193"
        }, {
            "city": "娄底市",
            "pinyin": "loudishi",
            "code": "221"
        }, {
            "city": "洛阳市",
            "pinyin": "luoyangshi",
            "code": "153"
        }, {
            "city": "吕梁市",
            "pinyin": "lvliangshi",
            "code": "327"
        }]
    }, {
        "key": "M",
        "cities": [{
            "city": "马鞍山市",
            "pinyin": "maanshanshi",
            "code": "358"
        }, {
            "city": "满洲里市",
            "pinyin": "manzhoulishi",
            "code": "542"
        }, {
            "city": "茂名市",
            "pinyin": "maomingshi",
            "code": "139"
        }, {
            "city": "眉山市",
            "pinyin": "meishanshi",
            "code": "77"
        }, {
            "city": "梅州市",
            "pinyin": "meizhoushi",
            "code": "141"
        }, {
            "city": "绵阳市",
            "pinyin": "mianyangshi",
            "code": "240"
        }, {
            "city": "牡丹江市",
            "pinyin": "mudanjiangshi",
            "code": "49"
        }]
    }, {
        "key": "N",
        "cities": [{
            "city": "南昌市",
            "pinyin": "nanchangshi",
            "code": "163"
        }, {
            "city": "南充市",
            "pinyin": "nanchongshi",
            "code": "291"
        }, {
            "city": "南京市",
            "pinyin": "nanjingshi",
            "code": "315"
        }, {
            "city": "南宁市",
            "pinyin": "nanningshi",
            "code": "261"
        }, {
            "city": "南平市",
            "pinyin": "nanpingshi",
            "code": "133"
        }, {
            "city": "南通市",
            "pinyin": "nantongshi",
            "code": "161"
        }, {
            "city": "南阳市",
            "pinyin": "nanyangshi",
            "code": "309"
        }, {
            "city": "那曲地区",
            "pinyin": "naqudiqu",
            "code": "101"
        }, {
            "city": "内江市",
            "pinyin": "neijiangshi",
            "code": "248"
        }, {
            "city": "宁波市",
            "pinyin": "ningboshi",
            "code": "180"
        }, {
            "city": "宁德市",
            "pinyin": "ningdeshi",
            "code": "192"
        }, {
            "city": "怒江傈僳族自治州",
            "pinyin": "nujianglisuzuzizhizhou",
            "code": "113"
        }]
    }, {
        "key": "P",
        "cities": [{
            "city": "盘锦市",
            "pinyin": "panjinshi",
            "code": "228"
        }, {
            "city": "攀枝花市",
            "pinyin": "panzhihuashi",
            "code": "81"
        }, {
            "city": "平顶山市",
            "pinyin": "pingdingshanshi",
            "code": "213"
        }, {
            "city": "平凉市",
            "pinyin": "pingliangshi",
            "code": "359"
        }, {
            "city": "萍乡市",
            "pinyin": "pingxiangshi",
            "code": "350"
        }, {
            "city": "普洱市 ",
            "pinyin": "puershi",
            "code": "108"
        }, {
            "city": "莆田市",
            "pinyin": "putianshi",
            "code": "195"
        }]
    }, {
        "key": "Q",
        "cities": [{
            "city": "黔东南苗族侗族自治州 ",
            "pinyin": "qiandongnanmiaozudongzuzizhizhou",
            "code": "342"
        }, {
            "city": "潜江市",
            "pinyin": "qianjiangshi",
            "code": "1293"
        }, {
            "city": "黔南布依族苗族自治州",
            "pinyin": "qiannanbuyizumiaozuzizhizhou",
            "code": "306"
        }, {
            "city": "黔西南布依族苗族自治州",
            "pinyin": "qianxinanbuyizumiaozuzizhizhou",
            "code": "343"
        }, {
            "city": "青岛市",
            "pinyin": "qingdaoshi",
            "code": "236"
        }, {
            "city": "庆阳市",
            "pinyin": "qingyangshi",
            "code": "135"
        }, {
            "city": "清远市",
            "pinyin": "qingyuanshi",
            "code": "197"
        }, {
            "city": "秦皇岛市",
            "pinyin": "qinhuangdaoshi",
            "code": "148"
        }, {
            "city": "钦州市",
            "pinyin": "qinzhoushi",
            "code": "145"
        }, {
            "city": "琼海市",
            "pinyin": "qionghaishi",
            "code": "2358"
        }, {
            "city": "琼中县",
            "pinyin": "qiongzhongxian",
            "code": "2031"
        }, {
            "city": "齐齐哈尔市",
            "pinyin": "qiqihaershi",
            "code": "41"
        }, {
            "city": "七台河市",
            "pinyin": "qitaiheshi",
            "code": "47"
        }, {
            "city": "泉州市",
            "pinyin": "quanzhoushi",
            "code": "134"
        }, {
            "city": "曲靖市",
            "pinyin": "qujingshi",
            "code": "249"
        }]
    }, {
        "key": "R",
        "cities": [{
            "city": "日喀则地区",
            "pinyin": "rikazediqu",
            "code": "102"
        }, {
            "city": "日照市",
            "pinyin": "rizhaoshi",
            "code": "173"
        }]
    }, {
        "key": "S",
        "cities": [{
            "city": "三门峡市",
            "pinyin": "sanmenxiashi",
            "code": "212"
        }, {
            "city": "三明市",
            "pinyin": "sanmingshi",
            "code": "254"
        }, {
            "city": "三沙市",
            "pinyin": "sanshashi",
            "code": "0"
        }, {
            "city": "三亚市",
            "pinyin": "sanyashi",
            "code": "121"
        }, {
            "city": "上海市",
            "pinyin": "shanghaishi",
            "code": "289"
        }, {
            "city": "商洛市",
            "pinyin": "shangluoshi",
            "code": "285"
        }, {
            "city": "商丘市",
            "pinyin": "shangqiushi",
            "code": "154"
        }, {
            "city": "上饶市",
            "pinyin": "shangraoshi",
            "code": "364"
        }, {
            "city": "山南地区",
            "pinyin": "shannandiqu",
            "code": "97"
        }, {
            "city": "汕头市",
            "pinyin": "shantoushi",
            "code": "303"
        }, {
            "city": "汕尾市",
            "pinyin": "shanweishi",
            "code": "339"
        }, {
            "city": "韶关市",
            "pinyin": "shaoguanshi",
            "code": "137"
        }, {
            "city": "绍兴市",
            "pinyin": "shaoxingshi",
            "code": "293"
        }, {
            "city": "邵阳市",
            "pinyin": "shaoyangshi",
            "code": "273"
        }, {
            "city": "神农架林区",
            "pinyin": "shennongjialinqu",
            "code": "2734"
        }, {
            "city": "深圳市",
            "pinyin": "shenshi",
            "code": "340"
        }, {
            "city": "沈阳市",
            "pinyin": "shenyangshi",
            "code": "58"
        }, {
            "city": "石家庄市",
            "pinyin": "shijiazhuangshi",
            "code": "150"
        }, {
            "city": "十堰市",
            "pinyin": "shiyanshi",
            "code": "216"
        }, {
            "city": "石嘴山市",
            "pinyin": "shizuishanshi",
            "code": "335"
        }, {
            "city": "双鸭山市",
            "pinyin": "shuangyashanshi",
            "code": "45"
        }, {
            "city": "朔州市",
            "pinyin": "shuozhoushi",
            "code": "237"
        }, {
            "city": "四平市",
            "pinyin": "sipingshi",
            "code": "56"
        }, {
            "city": "松原市",
            "pinyin": "songyuanshi",
            "code": "52"
        }, {
            "city": "绥化市",
            "pinyin": "suihuashi",
            "code": "44"
        }, {
            "city": "遂宁市",
            "pinyin": "suiningshi",
            "code": "330"
        }, {
            "city": "随州市",
            "pinyin": "suizhoushi",
            "code": "371"
        }, {
            "city": "宿迁市",
            "pinyin": "suqianshi",
            "code": "277"
        }, {
            "city": "宿州市",
            "pinyin": "suzhoushi",
            "code": "370"
        }, {
            "city": "苏州市",
            "pinyin": "suzhoushi",
            "code": "224"
        }]
    }, {
        "key": "T",
        "cities": [{
            "city": "塔城地区",
            "pinyin": "tachengdiqu",
            "code": "94"
        }, {
            "city": "泰安市",
            "pinyin": "taianshi",
            "code": "325"
        }, {
            "city": "太原市",
            "pinyin": "taiyuanshi",
            "code": "176"
        }, {
            "city": "台州市",
            "pinyin": "taizhoushi",
            "code": "244"
        }, {
            "city": "泰州市",
            "pinyin": "taizhoushi",
            "code": "276"
        }, {
            "city": "唐山市",
            "pinyin": "tangshanshi",
            "code": "265"
        }, {
            "city": "天津市",
            "pinyin": "tianjinshi",
            "code": "332"
        }, {
            "city": "天门市",
            "pinyin": "tianmenshi",
            "code": "2654"
        }, {
            "city": "天水市",
            "pinyin": "tianshuishi",
            "code": "196"
        }, {
            "city": "铁岭市",
            "pinyin": "tielingshi",
            "code": "60"
        }, {
            "city": "铜川市",
            "pinyin": "tongchuanshi",
            "code": "232"
        }, {
            "city": "通化市",
            "pinyin": "tonghuashi",
            "code": "165"
        }, {
            "city": "通辽市",
            "pinyin": "tongliaoshi",
            "code": "64"
        }, {
            "city": "铜陵市",
            "pinyin": "tonglingshi",
            "code": "337"
        }, {
            "city": "铜仁地区",
            "pinyin": "tongrendiqu",
            "code": "205"
        }, {
            "city": "屯昌县",
            "pinyin": "tunchangxian",
            "code": "1641"
        }]
    }, {
        "key": "W",
        "cities": [{
            "city": "万宁市",
            "pinyin": "wanningshi",
            "code": "1216"
        }, {
            "city": "潍坊市",
            "pinyin": "weifangshi",
            "code": "287"
        }, {
            "city": "威海市",
            "pinyin": "weihaishi",
            "code": "175"
        }, {
            "city": "渭南市",
            "pinyin": "weinanshi",
            "code": "170"
        }, {
            "city": "文昌市",
            "pinyin": "wenchangshi",
            "code": "2758"
        }, {
            "city": "文山壮族苗族自治州",
            "pinyin": "wenshanzhuangzumiaozuzizhizhou",
            "code": "177"
        }, {
            "city": "温州市",
            "pinyin": "wenzhoushi",
            "code": "178"
        }, {
            "city": "乌海市",
            "pinyin": "wuhaishi",
            "code": "123"
        }, {
            "city": "武汉市",
            "pinyin": "wuhanshi",
            "code": "218"
        }, {
            "city": "芜湖市",
            "pinyin": "wuhushi",
            "code": "129"
        }, {
            "city": "乌兰察布市",
            "pinyin": "wulanchabushi",
            "code": "168"
        }, {
            "city": "乌鲁木齐市",
            "pinyin": "wulumuqishi",
            "code": "92"
        }, {
            "city": "武威市",
            "pinyin": "wuweishi",
            "code": "118"
        }, {
            "city": "无锡市",
            "pinyin": "wuxishi",
            "code": "317"
        }, {
            "city": "五指山市",
            "pinyin": "wuzhishanshi",
            "code": "1644"
        }, {
            "city": "吴忠市",
            "pinyin": "wuzhongshi",
            "code": "322"
        }, {
            "city": "梧州市",
            "pinyin": "wuzhoushi",
            "code": "304"
        }]
    }, {
        "key": "X",
        "cities": [{
            "city": "厦门市",
            "pinyin": "xiamenshi",
            "code": "194"
        }, {
            "city": "襄樊市",
            "pinyin": "xiangfanshi",
            "code": "156"
        }, {
            "city": "湘潭市",
            "pinyin": "xiangtanshi",
            "code": "313"
        }, {
            "city": "湘西土家族苗族自治州",
            "pinyin": "xiangxitujiazumiaozuzizhizhou",
            "code": "274"
        }, {
            "city": "咸宁市",
            "pinyin": "xianningshi",
            "code": "362"
        }, {
            "city": "西安市",
            "pinyin": "xianshi",
            "code": "233"
        }, {
            "city": "仙桃市",
            "pinyin": "xiantaoshi",
            "code": "1713"
        }, {
            "city": "咸阳市",
            "pinyin": "xianyangshi",
            "code": "323"
        }, {
            "city": "孝感市",
            "pinyin": "xiaoganshi",
            "code": "310"
        }, {
            "city": "锡林郭勒盟",
            "pinyin": "xilinguolemeng",
            "code": "63"
        }, {
            "city": "兴安盟",
            "pinyin": "xinganmeng",
            "code": "62"
        }, {
            "city": "邢台市",
            "pinyin": "xingtaishi",
            "code": "266"
        }, {
            "city": "西宁市",
            "pinyin": "xiningshi",
            "code": "66"
        }, {
            "city": "新疆维吾尔自治区",
            "pinyin": "xinjiangweiwuerzizhiqu",
            "code": "12"
        }, {
            "city": "新乡市",
            "pinyin": "xinxiangshi",
            "code": "152"
        }, {
            "city": "信阳市",
            "pinyin": "xinyangshi",
            "code": "214"
        }, {
            "city": "新余市",
            "pinyin": "xinyushi",
            "code": "164"
        }, {
            "city": "忻州市",
            "pinyin": "xinzhoushi",
            "code": "367"
        }, {
            "city": "西双版纳傣族自治州",
            "pinyin": "xishuangbannadaizuzizhizhou",
            "code": "109"
        }, {
            "city": "宣城市",
            "pinyin": "xuanchengshi",
            "code": "190"
        }, {
            "city": "许昌市",
            "pinyin": "xuchangshi",
            "code": "155"
        }, {
            "city": "徐州市",
            "pinyin": "xuzhoushi",
            "code": "316"
        }]
    }, {
        "key": "Y",
        "cities": [{
            "city": "雅安市",
            "pinyin": "yaanshi",
            "code": "76"
        }, {
            "city": "延安市",
            "pinyin": "yananshi",
            "code": "284"
        }, {
            "city": "盐城市",
            "pinyin": "yanchengshi",
            "code": "223"
        }, {
            "city": "阳江市",
            "pinyin": "yangjiangshi",
            "code": "199"
        }, {
            "city": "阳泉市",
            "pinyin": "yangquanshi",
            "code": "357"
        }, {
            "city": "濮阳市",
            "pinyin": "yangshi",
            "code": "209"
        }, {
            "city": "扬州市",
            "pinyin": "yangzhoushi",
            "code": "346"
        }, {
            "city": "延吉市",
            "pinyin": "yanjishi",
            "code": "54"
        }, {
            "city": "烟台市",
            "pinyin": "yantaishi",
            "code": "326"
        }, {
            "city": "宜宾市",
            "pinyin": "yibinshi",
            "code": "186"
        }, {
            "city": "宜昌市",
            "pinyin": "yichangshi",
            "code": "270"
        }, {
            "city": "伊春市",
            "pinyin": "yichunshi",
            "code": "40"
        }, {
            "city": "宜春市",
            "pinyin": "yichunshi",
            "code": "278"
        }, {
            "city": "伊犁哈萨克自治州",
            "pinyin": "yilihasakezizhizhou",
            "code": "90"
        }, {
            "city": "银川市",
            "pinyin": "yinchuanshi",
            "code": "360"
        }, {
            "city": "营口市",
            "pinyin": "yingkoushi",
            "code": "281"
        }, {
            "city": "鹰潭市",
            "pinyin": "yingtanshi",
            "code": "279"
        }, {
            "city": "益阳市",
            "pinyin": "yiyangshi",
            "code": "272"
        }, {
            "city": "永州市",
            "pinyin": "yongzhoushi",
            "code": "314"
        }, {
            "city": "岳阳市",
            "pinyin": "yueyangshi",
            "code": "220"
        }, {
            "city": "榆林市",
            "pinyin": "yulinshi",
            "code": "231"
        }, {
            "city": "玉林市",
            "pinyin": "yulinshi",
            "code": "361"
        }, {
            "city": "运城市",
            "pinyin": "yunchengshi",
            "code": "328"
        }, {
            "city": "云浮市",
            "pinyin": "yunfushi",
            "code": "258"
        }, {
            "city": "玉树藏族自治州",
            "pinyin": "yushucangzuzizhizhou",
            "code": "71"
        }, {
            "city": "玉溪市",
            "pinyin": "yuxishi",
            "code": "106"
        }]
    }, {
        "key": "Z",
        "cities": [{
            "city": "枣庄市",
            "pinyin": "zaozhuangshi",
            "code": "172"
        }, {
            "city": "张家界市",
            "pinyin": "zhangjiajieshi",
            "code": "312"
        }, {
            "city": "张家口市",
            "pinyin": "zhangjiakoushi",
            "code": "264"
        }, {
            "city": "张掖市",
            "pinyin": "zhangyeshi",
            "code": "117"
        }, {
            "city": "漳州市",
            "pinyin": "zhangzhoushi",
            "code": "255"
        }, {
            "city": "湛江市",
            "pinyin": "zhanjiangshi",
            "code": "198"
        }, {
            "city": "肇庆市",
            "pinyin": "zhaoqingshi",
            "code": "338"
        }, {
            "city": "昭通市",
            "pinyin": "zhaotongshi",
            "code": "336"
        }, {
            "city": "郑州市",
            "pinyin": "zhengzhoushi",
            "code": "268"
        }, {
            "city": "镇江市",
            "pinyin": "zhenjiangshi",
            "code": "160"
        }, {
            "city": "重庆市",
            "pinyin": "zhongqingshi",
            "code": "132"
        }, {
            "city": "中山市",
            "pinyin": "zhongshanshi",
            "code": "187"
        }, {
            "city": "中卫市",
            "pinyin": "zhongweishi",
            "code": "181"
        }, {
            "city": "周口市",
            "pinyin": "zhoukoushi",
            "code": "308"
        }, {
            "city": "舟山市",
            "pinyin": "zhoushanshi",
            "code": "245"
        }, {
            "city": "亳州市",
            "pinyin": "zhoushi",
            "code": "188"
        }, {
            "city": "儋州市",
            "pinyin": "zhoushi",
            "code": "1215"
        }, {
            "city": "泸州市",
            "pinyin": "zhoushi",
            "code": "331"
        }, {
            "city": "衢州市",
            "pinyin": "zhoushi",
            "code": "243"
        }, {
            "city": "珠海市",
            "pinyin": "zhuhaishi",
            "code": "140"
        }, {
            "city": "驻马店市",
            "pinyin": "zhumadianshi",
            "code": "269"
        }, {
            "city": "株洲市",
            "pinyin": "zhuzhoushi",
            "code": "222"
        }, {
            "city": "淄博市",
            "pinyin": "ziboshi",
            "code": "354"
        }, {
            "city": "自贡市",
            "pinyin": "zigongshi",
            "code": "78"
        }, {
            "city": "资阳市",
            "pinyin": "ziyangshi",
            "code": "242"
        }, {
            "city": "遵义市",
            "pinyin": "zunyishi",
            "code": "262"
        }]
    }]
}